{"type": "FeatureCollection", "features": [ {"type": "Feature", "properties": {"norad_id": 66969, "name": "STARLINK-36149", "group": "last-30-days", "lat": -42.10070966715009, "lon": 10.815848769412662, "alt_km": 382.599406174706, "timestamp": "2025-12-25T22:42:15.710905+00:00", "meta": {"OBJECT_NAME": "STARLINK-36149", "OBJECT_ID": "2025-288L", "EPOCH": "2025-12-25T18:00:02.000160", "MEAN_MOTION": 15.63387939, "ECCENTRICITY": 0.0001371, "INCLINATION": 43.0003, "RA_OF_ASC_NODE": 87.8375, "ARG_OF_PERICENTER": 276.7614, "MEAN_ANOMALY": 339.5893, "EPHEMERIS_TYPE": 0, "CLASSIFICATION_TYPE": "U", "NORAD_CAT_ID": 66969, "ELEMENT_SET_NO": 999, "REV_AT_EPOCH": 392, "BSTAR": -0.023492, "MEAN_MOTION_DOT": -0.01961927, "MEAN_MOTION_DDOT": 0}, "tle": {"line1": "1 66969U 25288L   25359.75002315 -.01961927  00000+0 -23492-1 0  9995", "line2": "2 66969  43.0003  87.8375 0001371 276.7614 339.5893 15.63387939  3929"}}, "geometry": {"type": "Point", "coordinates": [10.815848769412662, -42.10070966715009]}}, {"type": "Feature", "properties": {"norad_id": 66970, "name": "STARLINK-35703", "group": "last-30-days", "lat": -40.3885042868197, "lon": 20.734661878983864, "alt_km": 382.5194236672969, "timestamp": "2025-12-25T22:42:15.710918+00:00", "meta": {"OBJECT_NAME": "STARLINK-35703", "OBJECT_ID": "2025-288M", "EPOCH": "2025-12-25T18:00:02.000160", "MEAN_MOTION": 15.63387813, "ECCENTRICITY": 0.0001416, "INCLINATION": 43.0002, "RA_OF_ASC_NODE": 87.8176, "ARG_OF_PERICENTER": 275.4942, "MEAN_ANOMALY": 348.5278, "EPHEMERIS_TYPE": 0, "CLASSIFICATION_TYPE": "U", "NORAD_CAT_ID": 66970, "ELEMENT_SET_NO": 999, "REV_AT_EPOCH": 392, "BSTAR": -0.023523, "MEAN_MOTION_DOT": -0.01964231, "MEAN_MOTION_DDOT": 0}, "tle": {"line1": "1 66970U 25288M   25359.75002315 -.01964231  00000+0 -23523-1 0  9993", "line2": "2 66970  43.0002  87.8176 0001416 275.4942 348.5278 15.63387813  3927"}}, "geometry": {"type": "Point", "coordinates": [20.734661878983864, -40.3885042868197]}}, {"type": "Feature", "properties": {"norad_id": 66971, "name": "STARLINK-35678", "group": "last-30-days", "lat": -42.916393870162274, "lon": 0.5032514148080208, "alt_km": 382.67648114689746, "timestamp": "2025-12-25T22:42:15.710928+00:00", "meta": {"OBJECT_NAME": "STARLINK-35678", "OBJECT_ID": "2025-288N", "EPOCH": "2025-12-25T18:00:02.000160", "MEAN_MOTION": 15.63390305, "ECCENTRICITY": 0.0001306, "INCLINATION": 43.0004, "RA_OF_ASC_NODE": 87.8575, "ARG_OF_PERICENTER": 274.6492, "MEAN_ANOMALY": 334.0344, "EPHEMERIS_TYPE": 0, "CLASSIFICATION_TYPE": "U", "NORAD_CAT_ID": 66971, "ELEMENT_SET_NO": 999, "REV_AT_EPOCH": 392, "BSTAR": -0.023557, "MEAN_MOTION_DOT": -0.01966841, "MEAN_MOTION_DDOT": 0}, "tle": {"line1": "1 66971U 25288N   25359.75002315 -.01966841  00000+0 -23557-1 0  9990", "line2": "2 66971  43.0004  87.8575 0001306 274.6492 334.0344 15.63390305  3926"}}, "geometry": {"type": "Point", "coordinates": [0.5032514148080208, -42.916393870162274]}}, {"type": "Feature", "properties": {"norad_id": 66972, "name": "STARLINK-34846", "group": "last-30-days", "lat": -42.79985024282757, "lon": 3.105441696978052, "alt_km": 382.5952063783352, "timestamp": "2025-12-25T22:42:15.710938+00:00", "meta": {"OBJECT_NAME": "STARLINK-34846", "OBJECT_ID": "2025-288P", "EPOCH": "2025-12-25T18:00:02.000160", "MEAN_MOTION": 15.63389944, "ECCENTRICITY": 0.0001417, "INCLINATION": 43.0003, "RA_OF_ASC_NODE": 87.8524, "ARG_OF_PERICENTER": 275.0618, "MEAN_ANOMALY": 335.5394, "EPHEMERIS_TYPE": 0, "CLASSIFICATION_TYPE": "U", "NORAD_CAT_ID": 66972, "ELEMENT_SET_NO": 999, "REV_AT_EPOCH": 392, "BSTAR": -0.023551, "MEAN_MOTION_DOT": -0.0196646, "MEAN_MOTION_DDOT": 0}, "tle": {"line1": "1 66972U 25288P   25359.75002315 -.01966460  00000+0 -23551-1 0  9992", "line2": "2 66972  43.0003  87.8524 0001417 275.0618 335.5394 15.63389944  3926"}}, "geometry": {"type": "Point", "coordinates": [3.105441696978052, -42.79985024282757]}}, {"type": "Feature", "properties": {"norad_id": 66973, "name": "STARLINK-35778", "group": "last-30-days", "lat": -42.62453364769558, "lon": 5.6956783143672975, "alt_km": 382.6133537944579, "timestamp": "2025-12-25T22:42:15.710948+00:00", "meta": {"OBJECT_NAME": "STARLINK-35778", "OBJECT_ID": "2025-288Q", "EPOCH": "2025-12-25T18:00:02.000160", "MEAN_MOTION": 15.63388923, "ECCENTRICITY": 0.0001382, "INCLINATION": 43.0003, "RA_OF_ASC_NODE": 87.8478, "ARG_OF_PERICENTER": 275.0955, "MEAN_ANOMALY": 337.4233, "EPHEMERIS_TYPE": 0, "CLASSIFICATION_TYPE": "U", "NORAD_CAT_ID": 66973, "ELEMENT_SET_NO": 999, "REV_AT_EPOCH": 392, "BSTAR": -0.023537, "MEAN_MOTION_DOT": -0.01965324, "MEAN_MOTION_DDOT": 0}, "tle": {"line1": "1 66973U 25288Q   25359.75002315 -.01965324  00000+0 -23537-1 0  9995", "line2": "2 66973  43.0003  87.8478 0001382 275.0955 337.4233 15.63388923  3929"}}, "geometry": {"type": "Point", "coordinates": [5.6956783143672975, -42.62453364769558]}}, {"type": "Feature", "properties": {"norad_id": 66974, "name": "STARLINK-35780", "group": "last-30-days", "lat": -42.39115343568239, "lon": 8.2677955105928, "alt_km": 382.593740323784, "timestamp": "2025-12-25T22:42:15.710977+00:00", "meta": {"OBJECT_NAME": "STARLINK-35780", "OBJECT_ID": "2025-288R", "EPOCH": "2025-12-25T18:00:02.000160", "MEAN_MOTION": 15.63388663, "ECCENTRICITY": 0.0001398, "INCLINATION": 43.0003, "RA_OF_ASC_NODE": 87.8433, "ARG_OF_PERICENTER": 276.4203, "MEAN_ANOMALY": 338.0152, "EPHEMERIS_TYPE": 0, "CLASSIFICATION_TYPE": "U", "NORAD_CAT_ID": 66974, "ELEMENT_SET_NO": 999, "REV_AT_EPOCH": 392, "BSTAR": -0.023533, "MEAN_MOTION_DOT": -0.01964992, "MEAN_MOTION_DDOT": 0}, "tle": {"line1": "1 66974U 25288R   25359.75002315 -.01964992  00000+0 -23533-1 0  9992", "line2": "2 66974  43.0003  87.8433 0001398 276.4203 338.0152 15.63388663  3927"}}, "geometry": {"type": "Point", "coordinates": [8.2677955105928, -42.39115343568239]}}, {"type": "Feature", "properties": {"norad_id": 66975, "name": "STARLINK-35777", "group": "last-30-days", "lat": -41.753655663261895, "lon": 13.343949840088113, "alt_km": 382.57371798899203, "timestamp": "2025-12-25T22:42:15.711000+00:00", "meta": {"OBJECT_NAME": "STARLINK-35777", "OBJECT_ID": "2025-288S", "EPOCH": "2025-12-25T18:00:02.000160", "MEAN_MOTION": 15.63388327, "ECCENTRICITY": 0.0001394, "INCLINATION": 43.0004, "RA_OF_ASC_NODE": 87.833, "ARG_OF_PERICENTER": 274.9828, "MEAN_ANOMALY": 343.2854, "EPHEMERIS_TYPE": 0, "CLASSIFICATION_TYPE": "U", "NORAD_CAT_ID": 66975, "ELEMENT_SET_NO": 999, "REV_AT_EPOCH": 392, "BSTAR": -0.023498, "MEAN_MOTION_DOT": -0.01962424, "MEAN_MOTION_DDOT": 0}, "tle": {"line1": "1 66975U 25288S   25359.75002315 -.01962424  00000+0 -23498-1 0  9991", "line2": "2 66975  43.0004  87.8330 0001394 274.9828 343.2854 15.63388327  3921"}}, "geometry": {"type": "Point", "coordinates": [13.343949840088113, -41.753655663261895]}}, {"type": "Feature", "properties": {"norad_id": 66976, "name": "STARLINK-35772", "group": "last-30-days", "lat": 31.88599560757119, "lon": -133.9465894607129, "alt_km": 439.3355554890086, "timestamp": "2025-12-25T22:42:15.711013+00:00", "meta": {"OBJECT_NAME": "STARLINK-35772", "OBJECT_ID": "2025-288T", "EPOCH": "2025-12-25T18:00:02.000160", "MEAN_MOTION": 15.41109724, "ECCENTRICITY": 0.0001611, "INCLINATION": 43, "RA_OF_ASC_NODE": 89.0657, "ARG_OF_PERICENTER": 258.3042, "MEAN_ANOMALY": 222.3165, "EPHEMERIS_TYPE": 0, "CLASSIFICATION_TYPE": "U", "NORAD_CAT_ID": 66976, "ELEMENT_SET_NO": 999, "REV_AT_EPOCH": 392, "BSTAR": -0.017444, "MEAN_MOTION_DOT": -0.00685295, "MEAN_MOTION_DDOT": 0}, "tle": {"line1": "1 66976U 25288T   25359.75002315 -.00685295  00000+0 -17444-1 0  9993", "line2": "2 66976  43.0000  89.0657 0001611 258.3042 222.3165 15.41109724  3920"}}, "geometry": {"type": "Point", "coordinates": [-133.9465894607129, 31.88599560757119]}}, {"type": "Feature", "properties": {"norad_id": 66977, "name": "STARLINK-35770", "group": "last-30-days", "lat": -41.35167903229054, "lon": 15.84155945386418, "alt_km": 382.566682738101, "timestamp": "2025-12-25T22:42:15.711023+00:00", "meta": {"OBJECT_NAME": "STARLINK-35770", "OBJECT_ID": "2025-288U", "EPOCH": "2025-12-25T18:00:02.000160", "MEAN_MOTION": 15.63385084, "ECCENTRICITY": 0.000139, "INCLINATION": 43.0003, "RA_OF_ASC_NODE": 87.8289, "ARG_OF_PERICENTER": 275.9833, "MEAN_ANOMALY": 344.2041, "EPHEMERIS_TYPE": 0, "CLASSIFICATION_TYPE": "U", "NORAD_CAT_ID": 66977, "ELEMENT_SET_NO": 999, "REV_AT_EPOCH": 392, "BSTAR": -0.023456, "MEAN_MOTION_DOT": -0.01959093, "MEAN_MOTION_DDOT": 0}, "tle": {"line1": "1 66977U 25288U   25359.75002315 -.01959093  00000+0 -23456-1 0  9995", "line2": "2 66977  43.0003  87.8289 0001390 275.9833 344.2041 15.63385084  3924"}}, "geometry": {"type": "Point", "coordinates": [15.84155945386418, -41.35167903229054]}}, {"type": "Feature", "properties": {"norad_id": 66978, "name": "STARLINK-35787", "group": "last-30-days", "lat": -39.831577707675365, "lon": 23.123894483210357, "alt_km": 382.454854677344, "timestamp": "2025-12-25T22:42:15.711036+00:00", "meta": {"OBJECT_NAME": "STARLINK-35787", "OBJECT_ID": "2025-288V", "EPOCH": "2025-12-25T18:00:02.000160", "MEAN_MOTION": 15.63388901, "ECCENTRICITY": 0.000147, "INCLINATION": 43.0003, "RA_OF_ASC_NODE": 87.8137, "ARG_OF_PERICENTER": 277.7943, "MEAN_ANOMALY": 348.1431, "EPHEMERIS_TYPE": 0, "CLASSIFICATION_TYPE": "U", "NORAD_CAT_ID": 66978, "ELEMENT_SET_NO": 999, "REV_AT_EPOCH": 392, "BSTAR": -0.023533, "MEAN_MOTION_DOT": -0.01965092, "MEAN_MOTION_DDOT": 0}, "tle": {"line1": "1 66978U 25288V   25359.75002315 -.01965092  00000+0 -23533-1 0  9998", "line2": "2 66978  43.0003  87.8137 0001470 277.7943 348.1431 15.63388901  3925"}}, "geometry": {"type": "Point", "coordinates": [23.123894483210357, -39.831577707675365]}}]}